{
    "satellites": [
        {
            "name": "starlink306",
            "title": "Starlink-306 (G11-39)",
            "tle": [
                "1 65881C 25223AD  25294.71298611 -.02200800  00000+0 -35940-1 0  2942",
                "2 65881  53.1600 222.9486 0001139 120.2061 178.0894 15.54187356    17"
            ],
            "stdMag": 5,
            "noradId": "65881",
            "tleUrl": "http://celestrak.org/NORAD/elements/supplemental/sup-gp.php?FILE=starlink&FORMAT=tle",
            "launchDate": "2025-10-03T14:06:50.000Z",
            "active": true,
            "batch": [
                {
                    "noradId": "65881",
                    "tle": [
                        "1 65881C 25223AD  25294.71298611 -.02200800  00000+0 -35940-1 0  2942",
                        "2 65881  53.1600 222.9486 0001139 120.2061 178.0894 15.54187356    17"
                    ]
                },
                {
                    "noradId": "65880",
                    "tle": [
                        "1 65880C 25223AC  25294.71645833 -.02201300  00000+0 -35967-1 0  2948",
                        "2 65880  53.1601 222.9436 0001072 120.2386 191.7435 15.54172701    19"
                    ]
                },
                {
                    "noradId": "65879",
                    "tle": [
                        "1 65879C 25223AB  25294.71020833 -.02205300  00000+0 -35997-1 0  2940",
                        "2 65879  53.1599 222.9657 0001172 107.5660 173.2624 15.54203996    18"
                    ]
                },
                {
                    "noradId": "65878",
                    "tle": [
                        "1 65878C 25223AA  25294.71576389 -.02201900  00000+0 -35974-1 0  2948",
                        "2 65878  53.1601 222.9509 0001000 116.7769 189.4011 15.54176417    15"
                    ]
                },
                {
                    "noradId": "65877",
                    "tle": [
                        "1 65877C 25223Z   25294.71784722 -.02203600  00000+0 -36013-1 0  2943",
                        "2 65877  53.1600 222.9328 0001008 117.4460 204.2271 15.54169021    13"
                    ]
                },
                {
                    "noradId": "65876",
                    "tle": [
                        "1 65876C 25223Y   25294.73590278 -.02204800  00000+0 -36135-1 0  2943",
                        "2 65876  53.1601 222.8586 0001051  82.1451 334.8484 15.54090971    17"
                    ]
                },
                {
                    "noradId": "65875",
                    "tle": [
                        "1 65875C 25223X   25294.73312500 -.02202800  00000+0 -36086-1 0  2945",
                        "2 65875  53.1602 222.8752 0001000  99.2378 300.2903 15.54100970    17"
                    ]
                },
                {
                    "noradId": "65873",
                    "tle": [
                        "1 65873C 25223V   25294.71090278 -.02203200  00000+0 -35967-1 0  2948",
                        "2 65873  53.1601 222.9859 0001101 111.7636 161.4515 15.54198985    11"
                    ]
                },
                {
                    "noradId": "65874",
                    "tle": [
                        "1 65874C 25223W   25294.71784722 -.02201200  00000+0 -35973-1 0  2948",
                        "2 65874  53.1600 222.9605 0001102 117.6100 190.6449 15.54166775    14"
                    ]
                },
                {
                    "noradId": "65872",
                    "tle": [
                        "1 65872C 25223U   25294.73243056 -.02204300  00000+0 -36106-1 0  2941",
                        "2 65872  53.1601 222.8868 0001000  94.7713 297.0345 15.54105867    17"
                    ]
                },
                {
                    "noradId": "65871",
                    "tle": [
                        "1 65871C 25223T   25294.71784722 -.02201100  00000+0 -35971-1 0  2942",
                        "2 65871  53.1602 222.9651 0001090 124.7474 181.5907 15.54166589    14"
                    ]
                },
                {
                    "noradId": "65870",
                    "tle": [
                        "1 65870C 25223S   25294.71715278 -.02204100  00000+0 -36018-1 0  2947",
                        "2 65870  53.1601 222.9726 0001012 118.8994 181.6370 15.54171779    12"
                    ]
                },
                {
                    "noradId": "65869",
                    "tle": [
                        "1 65869C 25223R   25294.71298611 -.02204700  00000+0 -36003-1 0  2942",
                        "2 65869  53.1603 222.9964 0001124 111.6276 163.6670 15.54190829    14"
                    ]
                },
                {
                    "noradId": "65868",
                    "tle": [
                        "1 65868C 25223Q   25294.71437500 -.02204400  00000+0 -36006-1 0  2943",
                        "2 65868  53.1603 222.9946 0001116 105.5124 175.6397 15.54184669    12"
                    ]
                },
                {
                    "noradId": "64064",
                    "tle": [
                        "1 64064C 25107A   25294.78381944  .00015833  00000+0  12301-3 0  2948",
                        "2 64064  43.0007 216.0581 0001816 256.0623 177.9848 15.70815310    15"
                    ]
                },
                {
                    "noradId": "65866",
                    "tle": [
                        "1 65866C 25223N   25294.71159722 -.02204100  00000+0 -35986-1 0  2941",
                        "2 65866  53.1604 223.0151 0001171 113.5232 148.2440 15.54196889    13"
                    ]
                },
                {
                    "noradId": "65865",
                    "tle": [
                        "1 65865C 25223M   25294.71229167 -.02205100  00000+0 -36005-1 0  2945",
                        "2 65865  53.1603 223.0154 0001113 109.7404 153.9978 15.54194691    16"
                    ]
                },
                {
                    "noradId": "65864",
                    "tle": [
                        "1 65864C 25223L   25294.71298611 -.02204000  00000+0 -35991-1 0  2945",
                        "2 65864  53.1603 223.0163 0001096 114.6283 151.0799 15.54190792    13"
                    ]
                },
                {
                    "noradId": "65863",
                    "tle": [
                        "1 65863C 25223K   25294.71506944 -.02203500  00000+0 -35995-1 0  2943",
                        "2 65863  53.1604 223.0147 0001194 110.6902 162.8502 15.54180027    10"
                    ]
                },
                {
                    "noradId": "65862",
                    "tle": [
                        "1 65862C 25223J   25294.71229167 -.02203900  00000+0 -35985-1 0  2944",
                        "2 65862  53.1604 223.0242 0001175 111.2261 148.6777 15.54193742    13"
                    ]
                },
                {
                    "noradId": "65861",
                    "tle": [
                        "1 65861C 25223H   25294.71784722 -.02204400  00000+0 -36026-1 0  2949",
                        "2 65861  53.1603 223.0133 0001167 109.1481 174.1891 15.54169487    11"
                    ]
                },
                {
                    "noradId": "65860",
                    "tle": [
                        "1 65860C 25223G   25294.71506944 -.02203800  00000+0 -36001-1 0  2942",
                        "2 65860  53.1604 223.0201 0001058 110.3909 161.2309 15.54181049    14"
                    ]
                },
                {
                    "noradId": "65859",
                    "tle": [
                        "1 65859C 25223F   25294.71298611 -.02203000  00000+0 -35974-1 0  2949",
                        "2 65859  53.1604 223.0334 0001153 110.7499 147.2919 15.54189571    12"
                    ]
                },
                {
                    "noradId": "65858",
                    "tle": [
                        "1 65858C 25223E   25294.71368056 -.02203900  00000+0 -35993-1 0  2949",
                        "2 65858  53.1601 223.0381 0001127 113.7055 144.3893 15.54187489    17"
                    ]
                },
                {
                    "noradId": "65857",
                    "tle": [
                        "1 65857C 25223D   25294.71854167 -.02203800  00000+0 -36020-1 0  2942",
                        "2 65857  53.1600 223.0186 0001019 108.7524 174.6390 15.54165774    14"
                    ]
                },
                {
                    "noradId": "65856",
                    "tle": [
                        "1 65856C 25223C   25294.71437500 -.02203100  00000+0 -35984-1 0  2940",
                        "2 65856  53.1601 223.0422 0001250 111.0686 147.0812 15.54183221    10"
                    ]
                },
                {
                    "noradId": "65855",
                    "tle": [
                        "1 65855C 25223B   25294.71715278 -.02203400  00000+0 -36005-1 0  2948",
                        "2 65855  53.1601 223.0332 0001087 114.5574 157.2255 15.54171417    19"
                    ]
                },
                {
                    "noradId": "65854",
                    "tle": [
                        "1 65854C 25223A   25294.71159722 -.02200900  00000+0 -35931-1 0  2942",
                        "2 65854  53.1603 223.0637 0001317 109.1807 129.5841 15.54193859    10"
                    ]
                }
            ]
        }
    ],
    "config": {}
}